start=new Date('2022-01-19T00:00:00.000Z').valueOf();
sats=[{"MEAN_ANOMALY":"294.2332","DECAY_DATE":null,"OBJECT_TYPE":"PAYLOAD","OBJECT_NAME":"STARLINK-1448","MEAN_MOTION":"15.06395894","EPHEMERIS_TYPE":"0","MEAN_MOTION_DOT":"0.00000789","INCLINATION":"53.0543","APOAPSIS":"548.201","ARG_OF_PERICENTER":"65.8804","PERIOD":"95.592","EPOCH":"2022-01-18T17:01:33.384288","REV_AT_EPOCH":"9098","TLE_LINE1":"1 45665U 20035J   22018.70941417  .00000789  00000-0  71868-4 0  9990","REF_FRAME":"TEME","MEAN_MOTION_DDOT":"0.0000000000000","CENTER_NAME":"EARTH","TIME_SYSTEM":"UTC","RCS_SIZE":"LARGE","ELEMENT_SET_NO":"999","OBJECT_ID":"2020-035J","TLE_LINE2":"2 45665  53.0543   9.6666 0001408  65.8804 294.2332 15.06395894 90986","PERIAPSIS":"546.251","BSTAR":"0.00007186800000","COUNTRY_CODE":"US","MEAN_ELEMENT_THEORY":"SGP4","GP_ID":"194153069","SITE":"AFETR","SEMIMAJOR_AXIS":"6925.361","FILE":"3276875","CLASSIFICATION_TYPE":"U","NORAD_CAT_ID":"45665","ECCENTRICITY":"0.00014080","LAUNCH_DATE":"2020-06-04","RA_OF_ASC_NODE":"9.6666"},{"COUNTRY_CODE":"US","MEAN_ELEMENT_THEORY":"SGP4","GP_ID":"194122729","SITE":"AFETR","SEMIMAJOR_AXIS":"6925.362","ELEMENT_SET_NO":"999","OBJECT_ID":"2020-035K","TLE_LINE2":"2 45666  53.0563  10.8401 0001658  65.2543 294.8618 15.06395480 90941","PERIAPSIS":"546.079","BSTAR":"-0.00008052500000","ECCENTRICITY":"0.00016580","LAUNCH_DATE":"2020-06-04","RA_OF_ASC_NODE":"10.8401","FILE":"3276616","CLASSIFICATION_TYPE":"U","NORAD_CAT_ID":"45666","MEAN_MOTION_DOT":"-0.00001481","INCLINATION":"53.0563","APOAPSIS":"548.376","PERIOD":"95.592","ARG_OF_PERICENTER":"65.2543","EPOCH":"2022-01-18T10:48:39.811392","REV_AT_EPOCH":"9094","MEAN_ANOMALY":"294.8618","DECAY_DATE":null,"OBJECT_TYPE":"PAYLOAD","OBJECT_NAME":"STARLINK-1449","MEAN_MOTION":"15.06395480","EPHEMERIS_TYPE":"0","REF_FRAME":"TEME","TIME_SYSTEM":"UTC","MEAN_MOTION_DDOT":"0.0000000000000","CENTER_NAME":"EARTH","RCS_SIZE":"LARGE","TLE_LINE1":"1 45666U 20035K   22018.45046078 -.00001481  00000-0 -80525-4 0  9994"},{"MEAN_MOTION":"15.06383267","EPHEMERIS_TYPE":"0","OBJECT_NAME":"STARLINK-1450","OBJECT_TYPE":"PAYLOAD","MEAN_ANOMALY":"297.8628","DECAY_DATE":null,"REV_AT_EPOCH":"9094","EPOCH":"2022-01-18T10:44:43.307808","ARG_OF_PERICENTER":"62.2508","PERIOD":"95.593","APOAPSIS":"548.272","INCLINATION":"53.0541","MEAN_MOTION_DOT":"-0.00000770","TLE_LINE1":"1 45667U 20035L   22018.44772347 -.00000770  00000-0 -32795-4 0  9995","RCS_SIZE":"LARGE","MEAN_MOTION_DDOT":"0.0000000000000","TIME_SYSTEM":"UTC","CENTER_NAME":"EARTH","REF_FRAME":"TEME","BSTAR":"-0.00003279500000","PERIAPSIS":"546.257","TLE_LINE2":"2 45667  53.0541  10.8442 0001455  62.2508 297.8628 15.06383267 90940","OBJECT_ID":"2020-035L","ELEMENT_SET_NO":"999","SEMIMAJOR_AXIS":"6925.400","GP_ID":"194123981","SITE":"AFETR","MEAN_ELEMENT_THEORY":"SGP4","COUNTRY_CODE":"US","NORAD_CAT_ID":"45667","CLASSIFICATION_TYPE":"U","FILE":"3276616","RA_OF_ASC_NODE":"10.8442","LAUNCH_DATE":"2020-06-04","ECCENTRICITY":"0.00014550"},{"APOAPSIS":"548.455","PERIOD":"95.593","ARG_OF_PERICENTER":"58.8202","MEAN_MOTION_DOT":"0.00001425","INCLINATION":"53.0578","REV_AT_EPOCH":"9099","EPOCH":"2022-01-18T16:23:03.399072","DECAY_DATE":null,"MEAN_ANOMALY":"301.2958","OBJECT_NAME":"STARLINK-1451","MEAN_MOTION":"15.06388888","EPHEMERIS_TYPE":"0","OBJECT_TYPE":"PAYLOAD","RCS_SIZE":"LARGE","REF_FRAME":"TEME","MEAN_MOTION_DDOT":"0.0000000000000","TIME_SYSTEM":"UTC","CENTER_NAME":"EARTH","TLE_LINE1":"1 45668U 20035M   22018.68267823  .00001425  00000-0  11457-3 0  9997","MEAN_ELEMENT_THEORY":"SGP4","SITE":"AFETR","GP_ID":"194152825","COUNTRY_CODE":"US","SEMIMAJOR_AXIS":"6925.383","OBJECT_ID":"2020-035M","ELEMENT_SET_NO":"999","BSTAR":"0.00011457000000","TLE_LINE2":"2 45668  53.0578   9.7625 0001744  58.8202 301.2958 15.06388888 90999","PERIAPSIS":"546.040","RA_OF_ASC_NODE":"9.7625","ECCENTRICITY":"0.00017440","LAUNCH_DATE":"2020-06-04","FILE":"3276875","NORAD_CAT_ID":"45668","CLASSIFICATION_TYPE":"U"},{"OBJECT_TYPE":"PAYLOAD","OBJECT_NAME":"STARLINK-1452","EPHEMERIS_TYPE":"0","MEAN_MOTION":"15.06394248","DECAY_DATE":null,"MEAN_ANOMALY":"305.2145","EPOCH":"2022-01-18T15:57:51.925248","REV_AT_EPOCH":"9098","MEAN_MOTION_DOT":"-0.00000906","INCLINATION":"53.0554","APOAPSIS":"548.379","ARG_OF_PERICENTER":"54.8999","PERIOD":"95.593","TLE_LINE1":"1 45669U 20035N   22018.66518432 -.00000906  00000-0 -41950-4 0  9998","REF_FRAME":"TEME","MEAN_MOTION_DDOT":"0.0000000000000","CENTER_NAME":"EARTH","TIME_SYSTEM":"UTC","RCS_SIZE":"LARGE","TLE_LINE2":"2 45669  53.0554   9.8707 0001657  54.8999 305.2145 15.06394248 90986","PERIAPSIS":"546.084","BSTAR":"-0.00004195000000","ELEMENT_SET_NO":"999","OBJECT_ID":"2020-035N","SEMIMAJOR_AXIS":"6925.366","COUNTRY_CODE":"US","MEAN_ELEMENT_THEORY":"SGP4","SITE":"AFETR","GP_ID":"194153570","CLASSIFICATION_TYPE":"U","NORAD_CAT_ID":"45669","FILE":"3276875","ECCENTRICITY":"0.00016570","LAUNCH_DATE":"2020-06-04","RA_OF_ASC_NODE":"9.8707"},{"TLE_LINE1":"1 45670U 20035P   22018.85595167  .00002881  00000-0  21236-3 0  9997","RCS_SIZE":"LARGE","MEAN_MOTION_DDOT":"0.0000000000000","TIME_SYSTEM":"UTC","CENTER_NAME":"EARTH","REF_FRAME":"TEME","MEAN_MOTION":"15.06375798","EPHEMERIS_TYPE":"0","OBJECT_NAME":"STARLINK-1453","OBJECT_TYPE":"PAYLOAD","MEAN_ANOMALY":"301.2958","DECAY_DATE":null,"REV_AT_EPOCH":"9132","EPOCH":"2022-01-18T20:32:34.224288","PERIOD":"95.594","ARG_OF_PERICENTER":"58.8162","APOAPSIS":"548.214","INCLINATION":"53.0563","MEAN_MOTION_DOT":"0.00002881","NORAD_CAT_ID":"45670","CLASSIFICATION_TYPE":"U","FILE":"3276875","RA_OF_ASC_NODE":"339.0134","LAUNCH_DATE":"2020-06-04","ECCENTRICITY":"0.00013380","BSTAR":"0.00021236000000","PERIAPSIS":"546.361","TLE_LINE2":"2 45670  53.0563 339.0134 0001338  58.8162 301.2958 15.06375798 91328","OBJECT_ID":"2020-035P","ELEMENT_SET_NO":"999","SEMIMAJOR_AXIS":"6925.423","SITE":"AFETR","GP_ID":"194153304","MEAN_ELEMENT_THEORY":"SGP4","COUNTRY_CODE":"US"},{"CLASSIFICATION_TYPE":"U","NORAD_CAT_ID":"45671","FILE":"3276875","ECCENTRICITY":"0.00015200","LAUNCH_DATE":"2020-06-04","RA_OF_ASC_NODE":"9.8535","TLE_LINE2":"2 45671  53.0556   9.8535 0001520  72.4432 287.6723 15.06386534 90970","PERIAPSIS":"546.202","BSTAR":"-0.00010655000000","ELEMENT_SET_NO":"999","OBJECT_ID":"2020-035Q","SEMIMAJOR_AXIS":"6925.390","COUNTRY_CODE":"US","MEAN_ELEMENT_THEORY":"SGP4","SITE":"AFETR","GP_ID":"194152074","TLE_LINE1":"1 45671U 20035Q   22018.66888572 -.00001868  00000-0 -10655-3 0  9991","REF_FRAME":"TEME","CENTER_NAME":"EARTH","MEAN_MOTION_DDOT":"0.0000000000000","TIME_SYSTEM":"UTC","RCS_SIZE":"LARGE","OBJECT_TYPE":"PAYLOAD","OBJECT_NAME":"STARLINK-1454","EPHEMERIS_TYPE":"0","MEAN_MOTION":"15.06386534","MEAN_ANOMALY":"287.6723","DECAY_DATE":null,"EPOCH":"2022-01-18T16:03:11.726208","REV_AT_EPOCH":"9097","MEAN_MOTION_DOT":"-0.00001868","INCLINATION":"53.0556","APOAPSIS":"548.307","ARG_OF_PERICENTER":"72.4432","PERIOD":"95.593"},{"ELEMENT_SET_NO":"999","OBJECT_ID":"2020-035R","TLE_LINE2":"2 45672  53.0555 338.9255 0001889  60.0926 300.0251 15.06387747 91439","PERIAPSIS":"545.943","BSTAR":"0.00001072200000","COUNTRY_CODE":"US","MEAN_ELEMENT_THEORY":"SGP4","SITE":"AFETR","GP_ID":"194152325","SEMIMAJOR_AXIS":"6925.386","FILE":"3276875","CLASSIFICATION_TYPE":"U","NORAD_CAT_ID":"45672","ECCENTRICITY":"0.00018890","LAUNCH_DATE":"2020-06-04","RA_OF_ASC_NODE":"338.9255","DECAY_DATE":null,"MEAN_ANOMALY":"300.0251","OBJECT_TYPE":"PAYLOAD","OBJECT_NAME":"STARLINK-1455","EPHEMERIS_TYPE":"0","MEAN_MOTION":"15.06387747","MEAN_MOTION_DOT":"-0.00000122","INCLINATION":"53.0555","APOAPSIS":"548.559","ARG_OF_PERICENTER":"60.0926","PERIOD":"95.593","EPOCH":"2022-01-18T21:04:24.148992","REV_AT_EPOCH":"9143","TLE_LINE1":"1 45672U 20035R   22018.87805728 -.00000122  00000-0  10722-4 0  9994","REF_FRAME":"TEME","MEAN_MOTION_DDOT":"0.0000000000000","CENTER_NAME":"EARTH","TIME_SYSTEM":"UTC","RCS_SIZE":"LARGE"},{"TLE_LINE1":"1 45673U 20035S   22018.68362315 -.00000091  00000-0  12818-4 0  9997","RCS_SIZE":"LARGE","REF_FRAME":"TEME","CENTER_NAME":"EARTH","MEAN_MOTION_DDOT":"0.0000000000000","TIME_SYSTEM":"UTC","OBJECT_NAME":"STARLINK-1456","EPHEMERIS_TYPE":"0","MEAN_MOTION":"15.06391580","OBJECT_TYPE":"PAYLOAD","DECAY_DATE":null,"MEAN_ANOMALY":"299.4135","REV_AT_EPOCH":"9099","EPOCH":"2022-01-18T16:24:25.040160","APOAPSIS":"548.586","ARG_OF_PERICENTER":"60.7048","PERIOD":"95.593","MEAN_MOTION_DOT":"-0.00000091","INCLINATION":"53.0546","NORAD_CAT_ID":"45673","CLASSIFICATION_TYPE":"U","FILE":"3276875","RA_OF_ASC_NODE":"9.7894","LAUNCH_DATE":"2020-06-04","ECCENTRICITY":"0.00019440","BSTAR":"0.00001281800000","TLE_LINE2":"2 45673  53.0546   9.7894 0001944  60.7048 299.4135 15.06391580 90998","PERIAPSIS":"545.893","OBJECT_ID":"2020-035S","ELEMENT_SET_NO":"999","SEMIMAJOR_AXIS":"6925.374","MEAN_ELEMENT_THEORY":"SGP4","GP_ID":"194153070","SITE":"AFETR","COUNTRY_CODE":"US"},{"REV_AT_EPOCH":"9096","EPOCH":"2022-01-18T16:35:01.580064","APOAPSIS":"548.328","ARG_OF_PERICENTER":"69.8931","PERIOD":"95.593","MEAN_MOTION_DOT":"0.00000521","INCLINATION":"53.0549","OBJECT_NAME":"STARLINK-1457","EPHEMERIS_TYPE":"0","MEAN_MOTION":"15.06389898","OBJECT_TYPE":"PAYLOAD","MEAN_ANOMALY":"290.2226","DECAY_DATE":null,"RCS_SIZE":"LARGE","REF_FRAME":"TEME","MEAN_MOTION_DDOT":"0.0000000000000","CENTER_NAME":"EARTH","TIME_SYSTEM":"UTC","TLE_LINE1":"1 45674U 20035T   22018.69099051  .00000521  00000-0  53906-4 0  9993","SEMIMAJOR_AXIS":"6925.380","MEAN_ELEMENT_THEORY":"SGP4","SITE":"AFETR","GP_ID":"194153805","COUNTRY_CODE":"US","BSTAR":"0.00005390600000","TLE_LINE2":"2 45674  53.0549   9.7554 0001564  69.8931 290.2226 15.06389898 90960","PERIAPSIS":"546.161","OBJECT_ID":"2020-035T","ELEMENT_SET_NO":"999","RA_OF_ASC_NODE":"9.7554","ECCENTRICITY":"0.00015640","LAUNCH_DATE":"2020-06-04","NORAD_CAT_ID":"45674","CLASSIFICATION_TYPE":"U","FILE":"3276875"}];
